{
  "type": "FeatureCollection",
  "features": [
    {
      "type": "Feature",
      "properties": {
        "norad_id": 38487,
        "name": "COSMOS 2251 DEB",
        "group": "cosmos-2251-debris",
        "lat": -19.6539551686993,
        "lon": -158.8868735793676,
        "alt_km": 503.02938172214726,
        "timestamp": "2025-12-21T14:40:48.316994+00:00",
        "meta_object_name": "COSMOS 2251 DEB",
        "meta_object_id": "1993-036BTX",
        "meta_epoch": "2025-12-20T18:49:06.164832",
        "meta_mean_motion": 15.17869256,
        "meta_eccentricity": 0.0020834,
        "meta_inclination": 73.9734,
        "meta_ra_of_asc_node": 16.9556,
        "meta_arg_of_pericenter": 189.3194,
        "meta_mean_anomaly": 170.7618,
        "meta_ephemeris_type": 0,
        "meta_classification_type": "U",
        "meta_norad_cat_id": 38487,
        "meta_element_set_no": 999,
        "meta_rev_at_epoch": 66922,
        "meta_bstar": 0.001222,
        "meta_mean_motion_dot": 0.00024942,
        "meta_mean_motion_ddot": 0,
        "tle_line1": "1 38487U 93036BTX 25354.78409913  .00024942  00000+0  12220-2 0  9990",
        "tle_line2": "2 38487  73.9734  16.9556 0020834 189.3194 170.7618 15.17869256669224"
      },
      "geometry": {
        "type": "Point",
        "coordinates": [
          -158.8868735793676,
          -19.6539551686993
        ]
      }
    },
    {
      "type": "Feature",
      "properties": {
        "norad_id": 39109,
        "name": "COSMOS 2251 DEB",
        "group": "cosmos-2251-debris",
        "lat": 60.909008601161574,
        "lon": -121.18494508142645,
        "alt_km": 670.6816907720877,
        "timestamp": "2025-12-21T14:40:48.317004+00:00",
        "meta_object_name": "COSMOS 2251 DEB",
        "meta_object_id": "1993-036BTY",
        "meta_epoch": "2025-12-19T23:30:41.180256",
        "meta_mean_motion": 14.70762004,
        "meta_eccentricity": 0.005957,
        "meta_inclination": 74.0412,
        "meta_ra_of_asc_node": 211.0292,
        "meta_arg_of_pericenter": 312.7483,
        "meta_mean_anomaly": 114.4468,
        "meta_ephemeris_type": 0,
        "meta_classification_type": "U",
        "meta_norad_cat_id": 39109,
        "meta_element_set_no": 999,
        "meta_rev_at_epoch": 65280,
        "meta_bstar": 0.00029802,
        "meta_mean_motion_dot": 1.835e-05,
        "meta_mean_motion_ddot": 0,
        "tle_line1": "1 39109U 93036BTY 25353.97964329  .00001835  00000+0  29802-3 0  9990",
        "tle_line2": "2 39109  74.0412 211.0292 0059570 312.7483 114.4468 14.70762004652803"
      },
      "geometry": {
        "type": "Point",
        "coordinates": [
          -121.18494508142645,
          60.909008601161574
        ]
      }
    },
    {
      "type": "Feature",
      "properties": {
        "norad_id": 39110,
        "name": "COSMOS 2251 DEB",
        "group": "cosmos-2251-debris",
        "lat": -59.3195483078562,
        "lon": 15.154256401860803,
        "alt_km": 596.8871834211213,
        "timestamp": "2025-12-21T14:40:48.317014+00:00",
        "meta_object_name": "COSMOS 2251 DEB",
        "meta_object_id": "1993-036BTZ",
        "meta_epoch": "2025-12-17T22:04:59.920608",
        "meta_mean_motion": 14.72312711,
        "meta_eccentricity": 0.00972569,
        "meta_inclination": 73.9594,
        "meta_ra_of_asc_node": 51.3772,
        "meta_arg_of_pericenter": 282.7235,
        "meta_mean_anomaly": 255.0933,
        "meta_ephemeris_type": 0,
        "meta_classification_type": "U",
        "meta_norad_cat_id": 39110,
        "meta_element_set_no": 999,
        "meta_rev_at_epoch": 62560,
        "meta_bstar": 0.00028872963,
        "meta_mean_motion_dot": 1.929e-05,
        "meta_mean_motion_ddot": 0,
        "tle_line1": "1 39110U 93036BTZ 25351.92013797  .00001929  00000+0  28873-3 0  9990",
        "tle_line2": "2 39110  73.9594  51.3772 0097256 282.7235 255.0933 14.72312711625601"
      },
      "geometry": {
        "type": "Point",
        "coordinates": [
          15.154256401860803,
          -59.3195483078562
        ]
      }
    },
    {
      "type": "Feature",
      "properties": {
        "norad_id": 39111,
        "name": "COSMOS 2251 DEB",
        "group": "cosmos-2251-debris",
        "lat": 29.574566819009675,
        "lon": -166.69881645194792,
        "alt_km": 523.3267298000546,
        "timestamp": "2025-12-21T14:40:48.317025+00:00",
        "meta_object_name": "COSMOS 2251 DEB",
        "meta_object_id": "1993-036BUA",
        "meta_epoch": "2025-12-01T22:58:55.551360",
        "meta_mean_motion": 15.11912111,
        "meta_eccentricity": 0.00109111,
        "meta_inclination": 74.0059,
        "meta_ra_of_asc_node": 63.5328,
        "meta_arg_of_pericenter": 39.1207,
        "meta_mean_anomaly": 321.0773,
        "meta_ephemeris_type": 0,
        "meta_classification_type": "U",
        "meta_norad_cat_id": 39111,
        "meta_element_set_no": 999,
        "meta_rev_at_epoch": 8982,
        "meta_bstar": 0.0056424119,
        "meta_mean_motion_dot": 0.00098096,
        "meta_mean_motion_ddot": 0,
        "tle_line1": "1 39111U 93036BUA 25335.95758740  .00098096  00000+0  56424-2 0  9993",
        "tle_line2": "2 39111  74.0059  63.5328 0010911  39.1207 321.0773 15.11912111 89826"
      },
      "geometry": {
        "type": "Point",
        "coordinates": [
          -166.69881645194792,
          29.574566819009675
        ]
      }
    },
    {
      "type": "Feature",
      "properties": {
        "norad_id": 39546,
        "name": "COSMOS 2251 DEB",
        "group": "cosmos-2251-debris",
        "lat": -68.0652106665909,
        "lon": -15.610891130759022,
        "alt_km": 569.3104161695592,
        "timestamp": "2025-12-21T14:40:48.317035+00:00",
        "meta_object_name": "COSMOS 2251 DEB",
        "meta_object_id": "1993-036BUC",
        "meta_epoch": "2025-12-20T15:00:47.215872",
        "meta_mean_motion": 14.92249819,
        "meta_eccentricity": 0.0044301,
        "meta_inclination": 73.9978,
        "meta_ra_of_asc_node": 120.9229,
        "meta_arg_of_pericenter": 279.9237,
        "meta_mean_anomaly": 79.6947,
        "meta_ephemeris_type": 0,
        "meta_classification_type": "U",
        "meta_norad_cat_id": 39546,
        "meta_element_set_no": 999,
        "meta_rev_at_epoch": 64554,
        "meta_bstar": 0.00091336,
        "meta_mean_motion_dot": 9.469e-05,
        "meta_mean_motion_ddot": 0,
        "tle_line1": "1 39546U 93036BUC 25354.62554648  .00009469  00000+0  91336-3 0  9999",
        "tle_line2": "2 39546  73.9978 120.9229 0044301 279.9237  79.6947 14.92249819645543"
      },
      "geometry": {
        "type": "Point",
        "coordinates": [
          -15.610891130759022,
          -68.0652106665909
        ]
      }
    },
    {
      "type": "Feature",
      "properties": {
        "norad_id": 39547,
        "name": "COSMOS 2251 DEB",
        "group": "cosmos-2251-debris",
        "lat": -64.1430484407446,
        "lon": -143.4868646381308,
        "alt_km": 563.1477586411902,
        "timestamp": "2025-12-21T14:40:48.317046+00:00",
        "meta_object_name": "COSMOS 2251 DEB",
        "meta_object_id": "1993-036BUD",
        "meta_epoch": "2025-12-19T07:21:14.962752",
        "meta_mean_motion": 15.03732917,
        "meta_eccentricity": 0.0005758,
        "meta_inclination": 74.0009,
        "meta_ra_of_asc_node": 4.9325,
        "meta_arg_of_pericenter": 3.3316,
        "meta_mean_anomaly": 11.6145,
        "meta_ephemeris_type": 0,
        "meta_classification_type": "U",
        "meta_norad_cat_id": 39547,
        "meta_element_set_no": 999,
        "meta_rev_at_epoch": 64124,
        "meta_bstar": 0.0019087,
        "meta_mean_motion_dot": 0.0002626,
        "meta_mean_motion_ddot": 0,
        "tle_line1": "1 39547U 93036BUD 25353.30642318  .00026260  00000+0  19087-2 0  9996",
        "tle_line2": "2 39547  74.0009   4.9325 0005758   3.3316  11.6145 15.03732917641247"
      },
      "geometry": {
        "type": "Point",
        "coordinates": [
          -143.4868646381308,
          -64.1430484407446
        ]
      }
    },
    {
      "type": "Feature",
      "properties": {
        "norad_id": 39553,
        "name": "COSMOS 2251 DEB",
        "group": "cosmos-2251-debris",
        "lat": -13.756802459605602,
        "lon": -49.36741358509206,
        "alt_km": 927.2865636582119,
        "timestamp": "2025-12-21T14:40:48.317055+00:00",
        "meta_object_name": "COSMOS 2251 DEB",
        "meta_object_id": "1993-036BUK",
        "meta_epoch": "2025-12-19T04:26:08.787552",
        "meta_mean_motion": 13.99893274,
        "meta_eccentricity": 0.02023146,
        "meta_inclination": 74.0301,
        "meta_ra_of_asc_node": 318.8543,
        "meta_arg_of_pericenter": 93.0274,
        "meta_mean_anomaly": 269.4029,
        "meta_ephemeris_type": 0,
        "meta_classification_type": "U",
        "meta_norad_cat_id": 39553,
        "meta_element_set_no": 999,
        "meta_rev_at_epoch": 75707,
        "meta_bstar": 0.00037697212,
        "meta_mean_motion_dot": 6.38e-06,
        "meta_mean_motion_ddot": 0,
        "tle_line1": "1 39553U 93036BUK 25353.18482393  .00000638  00000+0  37697-3 0  9993",
        "tle_line2": "2 39553  74.0301 318.8543 0202314  93.0274 269.4029 13.99893274757074"
      },
      "geometry": {
        "type": "Point",
        "coordinates": [
          -49.36741358509206,
          -13.756802459605602
        ]
      }
    }
  ]
}